{
  "type": "FeatureCollection",
  "features": [
    {
      "type": "Feature",
      "properties": {
        "code": "31104",
        "name": "고양시일산서구",
        "name_eng": "Goyangsiilsanseogu",
        "base_year": "2013"
      },
      "geometry": {
        "type": "Polygon",
        "coordinates": [
          [
            [
              126.67862254618308,
              37.697305342702336
            ],
            [
              126.69372674409394,
              37.687413022894034
            ],
            [
              126.72711651649912,
              37.70166318681986
            ],
            [
              126.77635483402547,
              37.70188604497484
            ],
            [
              126.78018904849759,
              37.678448868614744
            ],
            [
              126.77194259250199,
              37.665292527690774
            ],
            [
              126.74294383613385,
              37.6511173927548
            ],
            [
              126.74300328815525,
              37.63613822400079
            ],
            [
              126.6733552623039,
              37.67370888254625
            ],
            [
              126.67862254618308,
              37.697305342702336
            ]
          ]
        ]
      }
    },
    {
      "type": "Feature",
      "properties": {
        "code": "31103",
        "name": "고양시일산동구",
        "name_eng": "Goyangsiilsandonggu",
        "base_year": "2013"
      },
      "geometry": {
        "type": "Polygon",
        "coordinates": [
          [
            [
              126.77635483402547,
              37.70188604497484
            ],
            [
              126.79766531143225,
              37.730785143520876
            ],
            [
              126.81634118925638,
              37.72071803262515
            ],
            [
              126.83772078982989,
              37.72529130369535
            ],
            [
              126.85703023929057,
              37.68935027811791
            ],
            [
              126.83512162789108,
              37.680020660541864
            ],
            [
              126.79710848915354,
              37.6372950352041
            ],
            [
              126.77608157956732,
              37.61940269153496
            ],
            [
              126.74300328815525,
              37.63613822400079
            ],
            [
              126.74294383613385,
              37.6511173927548
            ],
            [
              126.77194259250199,
              37.665292527690774
            ],
            [
              126.78018904849759,
              37.678448868614744
            ],
            [
              126.77635483402547,
              37.70188604497484
            ]
          ]
        ]
      }
    },
    {
      "type": "Feature",
      "properties": {
        "code": "31101",
        "name": "고양시덕양구",
        "name_eng": "Goyangsideogyanggu",
        "base_year": "2013"
      },
      "geometry": {
        "type": "Polygon",
        "coordinates": [
          [
            [
              126.83772078982989,
              37.72529130369535
            ],
            [
              126.85856020555829,
              37.73179451375736
            ],
            [
              126.88536540501534,
              37.717034664244366
            ],
            [
              126.90425036668735,
              37.72565605361581
            ],
            [
              126.91088793086112,
              37.74418199544871
            ],
            [
              126.93180653905974,
              37.74575671706106
            ],
            [
              126.92470886562188,
              37.72916078041937
            ],
            [
              126.92290257733573,
              37.66907383915535
            ],
            [
              126.94191948970435,
              37.66797237250146
            ],
            [
              126.94689093217877,
              37.68234333447953
            ],
            [
              126.96734461801938,
              37.68969305565268
            ],
            [
              126.99383903424,
              37.676681761199085
            ],
            [
              126.9817452676551,
              37.65209769387776
            ],
            [
              126.98672705513869,
              37.63377641288196
            ],
            [
              126.977175406416,
              37.62859715400388
            ],
            [
              126.9738864128702,
              37.62949634786888
            ],
            [
              126.956473797387,
              37.652480737339445
            ],
            [
              126.91455481429648,
              37.64150050996935
            ],
            [
              126.90303066177668,
              37.609977911401344
            ],
            [
              126.90396681003595,
              37.59227403419942
            ],
            [
              126.88433284773288,
              37.588143322880526
            ],
            [
              126.85984199399667,
              37.571847855292745
            ],
            [
              126.82251438477105,
              37.5880430810082
            ],
            [
              126.80702115023597,
              37.60123001013228
            ],
            [
              126.77608157956732,
              37.61940269153496
            ],
            [
              126.79710848915354,
              37.6372950352041
            ],
            [
              126.83512162789108,
              37.680020660541864
            ],
            [
              126.85703023929057,
              37.68935027811791
            ],
            [
              126.83772078982989,
              37.72529130369535
            ]
          ]
        ]
      }
    }
  ]
}
